GLOBALSTAR M057 [-]     
1 25943U 99058A   23255.55176351 -.00000082  00000+0  10051-3 0  9994
2 25943  52.0014  14.7411 0003309 124.4623 235.6539 12.24771326 88062
GLOBALSTAR M059 [-]     
1 25944U 99058B   23255.13615472 -.00000088  00000+0 -26511-4 0  9997
2 25944  52.0011 149.4955 0000796  73.8153  76.4402 11.99952368496725
GLOBALSTAR M056 [-]     
1 25945U 99058C   23255.13431390 -.00000124  00000+0 -42374-3 0  9998
2 25945  51.9957 168.0089 0001282   4.5376 135.5966 12.04768254 84997
GLOBALSTAR M031 [-]     
1 25946U 99058D   23255.54552907  .00000025  00000+0  11750-2 0  9993
2 25946  51.9949  97.7096 0001347 343.9016  32.3202 12.15995333 86247
GLOBALSTAR M039 [-]     
1 25961U 99062A   23255.49456729 -.00000077  00000+0  14975-3 0  9995
2 25961  51.9846  69.1762 0003029  18.0264 342.0710 12.62269618 98922
GLOBALSTAR M034 [-]     
1 25962U 99062B   23255.47578789 -.00000072  00000+0  14600-3 0  9995
2 25962  51.9846 244.6179 0014026 266.4527 262.9305 11.79414868 62438
GLOBALSTAR M029 [-]     
1 25963U 99062C   23255.58453642 -.00000085  00000+0  13212-4 0  9991
2 25963  51.9826  36.8650 0001880 302.2481 138.6890 11.99867239 91867
GLOBALSTAR M061 [-]     
1 25964U 99062D   23255.61251049 -.00000043  00000+0  61437-3 0  9998
2 25964  51.9800  59.7684 0005758 188.2178 249.1758 11.76749815 45419
